SITRO-AIS-22
1 61740U 24199F   26068.95456443  .00003460  00000-0  31759-3 0  9996
2 61740  97.3323 273.3747 0013499  41.8157 318.4094 14.95387083117086
SITRO-AIS-24
1 61741U 24199G   26068.95501518  .00004091  00000-0  37286-3 0  9993
2 61741  97.3325 273.3822 0013403  42.6191 317.6069 14.95574575117059
